[
    {
        "Altitude(m)": 605470.7949649293,
        "Argument of Periapsis(deg)": 0.0,
        "Eccentricity": 0.0,
        "Inclination(deg)": 60.0,
        "Latitude(deg)": 27.988222273704398,
        "Longitude(deg)": 67.26291373595267,
        "Mean Anomaly(deg)": 147.2727,
        "RAAN(deg)": 5.0,
        "Satellite Name": "Test1 31",
        "Satellite Number": 31,
        "Semi-Major Axis(m)": 6980739.136638005,
        "Time(s)": 0
    },
    {
        "Altitude(m)": 605395.8329057966,
        "Argument of Periapsis(deg)": 0.00010418945913296404,
        "Eccentricity": 0.0,
        "Inclination(deg)": 60.0,
        "Latitude(deg)": 27.47391336153436,
        "Longitude(deg)": 67.61610228421368,
        "Mean Anomaly(deg)": 147.8928061454618,
        "RAAN(deg)": 4.999579950860257,
        "Satellite Name": "Test1 31",
        "Satellite Number": 31,
        "Semi-Major Axis(m)": 6980739.136638005,
        "Time(s)": 10
    }
]